[{"OBJECT_NAME":"STARLINK-4123","OBJECT_ID":"2022-101N","EPOCH":"2026-03-09T09:26:07.943136","MEAN_MOTION":15.08837084,"ECCENTRICITY":0.00010861,"INCLINATION":53.2173,"RA_OF_ASC_NODE":75.4527,"ARG_OF_PERICENTER":82.3044,"MEAN_ANOMALY":277.8072,"EPHEMERIS_TYPE":0,"CLASSIFICATION_TYPE":"U","NORAD_CAT_ID":53539,"ELEMENT_SET_NO":999,"REV_AT_EPOCH":19612,"BSTAR":-0.00017993359,"MEAN_MOTION_DOT":-3.15e-5,"MEAN_MOTION_DDOT":0},{"OBJECT_NAME":"DMSP 5D-2 F11 DEB","OBJECT_ID":"1991-082AJ","EPOCH":"2026-03-09T06:39:32.486112","MEAN_MOTION":15.08629375,"ECCENTRICITY":0.00070318,"INCLINATION":98.5181,"RA_OF_ASC_NODE":189.4283,"ARG_OF_PERICENTER":237.8685,"MEAN_ANOMALY":152.6153,"EPHEMERIS_TYPE":0,"CLASSIFICATION_TYPE":"U","NORAD_CAT_ID":28321,"ELEMENT_SET_NO":999,"REV_AT_EPOCH":14288,"BSTAR":0.0082823802,"MEAN_MOTION_DOT":0.00131946,"MEAN_MOTION_DDOT":0}]
